{"type": "FeatureCollection", "features": [ {"type": "Feature", "properties": {"norad_id": 34529, "name": "IRIDIUM 33 DEB", "group": "iridium-33-debris", "lat": -65.47258727388817, "lon": 24.965663529868834, "alt_km": 766.480623583795, "timestamp": "2025-12-18T10:51:26.195858+00:00", "meta": {"OBJECT_NAME": "IRIDIUM 33 DEB", "OBJECT_ID": "1997-051HW", "EPOCH": "2025-12-17T03:29:20.563296", "MEAN_MOTION": 14.40619267, "ECCENTRICITY": 0.00053513, "INCLINATION": 86.3637, "RA_OF_ASC_NODE": 33.5337, "ARG_OF_PERICENTER": 163.3615, "MEAN_ANOMALY": 196.7761, "EPHEMERIS_TYPE": 0, "CLASSIFICATION_TYPE": "U", "NORAD_CAT_ID": 34529, "ELEMENT_SET_NO": 999, "REV_AT_EPOCH": 88205, "BSTAR": 9.9400993e-05, "MEAN_MOTION_DOT": 3.37e-06, "MEAN_MOTION_DDOT": 0}, "tle": {"line1": "1 34529U 97051HW  25351.14537689  .00000337  00000+0  99401-4 0  9993", "line2": "2 34529  86.3637  33.5337 0005351 163.3615 196.7761 14.40619267882051"}}, "geometry": {"type": "Point", "coordinates": [24.965663529868834, -65.47258727388817]}}, {"type": "Feature", "properties": {"norad_id": 34538, "name": "IRIDIUM 33 DEB", "group": "iridium-33-debris", "lat": 6.68482072955166, "lon": -177.3830287670054, "alt_km": 768.1990397932213, "timestamp": "2025-12-18T10:51:26.195869+00:00", "meta": {"OBJECT_NAME": "IRIDIUM 33 DEB", "OBJECT_ID": "1997-051JF", "EPOCH": "2025-12-17T06:19:36.292800", "MEAN_MOTION": 14.42675143, "ECCENTRICITY": 0.00323823, "INCLINATION": 86.2769, "RA_OF_ASC_NODE": 3.5747, "ARG_OF_PERICENTER": 312.4941, "MEAN_ANOMALY": 170.8226, "EPHEMERIS_TYPE": 0, "CLASSIFICATION_TYPE": "U", "NORAD_CAT_ID": 34538, "ELEMENT_SET_NO": 999, "REV_AT_EPOCH": 87821, "BSTAR": 0.00073550599, "MEAN_MOTION_DOT": 2.479e-05, "MEAN_MOTION_DDOT": 0}, "tle": {"line1": "1 34538U 97051JF  25351.26361450  .00002479  00000+0  73551-3 0  9993", "line2": "2 34538  86.2769   3.5747 0032382 312.4941 170.8226 14.42675143878210"}}, "geometry": {"type": "Point", "coordinates": [-177.3830287670054, 6.68482072955166]}}, {"type": "Feature", "properties": {"norad_id": 34540, "name": "IRIDIUM 33 DEB", "group": "iridium-33-debris", "lat": -3.70496533806358, "lon": 125.2335092187591, "alt_km": 638.6487176921992, "timestamp": "2025-12-18T10:51:26.195879+00:00", "meta": {"OBJECT_NAME": "IRIDIUM 33 DEB", "OBJECT_ID": "1997-051JH", "EPOCH": "2025-12-17T21:15:02.173248", "MEAN_MOTION": 14.75425645, "ECCENTRICITY": 0.00172318, "INCLINATION": 86.31, "RA_OF_ASC_NODE": 305.2533, "ARG_OF_PERICENTER": 141.4592, "MEAN_ANOMALY": 272.6134, "EPHEMERIS_TYPE": 0, "CLASSIFICATION_TYPE": "U", "NORAD_CAT_ID": 34540, "ELEMENT_SET_NO": 999, "REV_AT_EPOCH": 89097, "BSTAR": 0.0012315699, "MEAN_MOTION_DOT": 8.411e-05, "MEAN_MOTION_DDOT": 0}, "tle": {"line1": "1 34540U 97051JH  25351.88544182  .00008411  00000+0  12316-2 0  9992", "line2": "2 34540  86.3100 305.2533 0017231 141.4592 272.6134 14.75425645890978"}}, "geometry": {"type": "Point", "coordinates": [125.2335092187591, -3.70496533806358]}}, {"type": "Feature", "properties": {"norad_id": 34648, "name": "IRIDIUM 33 DEB", "group": "iridium-33-debris", "lat": 79.12800062122723, "lon": 80.45360629833961, "alt_km": 977.5795653352634, "timestamp": "2025-12-18T10:51:26.195890+00:00", "meta": {"OBJECT_NAME": "IRIDIUM 33 DEB", "OBJECT_ID": "1997-051JZ", "EPOCH": "2025-12-17T05:27:16.397568", "MEAN_MOTION": 14.11635148, "ECCENTRICITY": 0.01813922, "INCLINATION": 86.3906, "RA_OF_ASC_NODE": 280.1344, "ARG_OF_PERICENTER": 284.869, "MEAN_ANOMALY": 73.2466, "EPHEMERIS_TYPE": 0, "CLASSIFICATION_TYPE": "U", "NORAD_CAT_ID": 34648, "ELEMENT_SET_NO": 999, "REV_AT_EPOCH": 85024, "BSTAR": 0.0057584356, "MEAN_MOTION_DOT": 0.00012245, "MEAN_MOTION_DDOT": 0}, "tle": {"line1": "1 34648U 97051JZ  25351.22727312  .00012245  00000+0  57584-2 0  9993", "line2": "2 34648  86.3906 280.1344 0181392 284.8690  73.2466 14.11635148850243"}}, "geometry": {"type": "Point", "coordinates": [80.45360629833961, 79.12800062122723]}}, {"type": "Feature", "properties": {"norad_id": 34651, "name": "IRIDIUM 33 DEB", "group": "iridium-33-debris", "lat": 86.24146616645666, "lon": -140.09990971326584, "alt_km": 807.8506609032593, "timestamp": "2025-12-18T10:51:26.195900+00:00", "meta": {"OBJECT_NAME": "IRIDIUM 33 DEB", "OBJECT_ID": "1997-051KC", "EPOCH": "2025-12-17T20:57:25.560000", "MEAN_MOTION": 14.25899188, "ECCENTRICITY": 0.014224, "INCLINATION": 86.2826, "RA_OF_ASC_NODE": 138.3936, "ARG_OF_PERICENTER": 187.682, "MEAN_ANOMALY": 172.2195, "EPHEMERIS_TYPE": 0, "CLASSIFICATION_TYPE": "U", "NORAD_CAT_ID": 34651, "ELEMENT_SET_NO": 999, "REV_AT_EPOCH": 85969, "BSTAR": 0.0024199214, "MEAN_MOTION_DOT": 6.428e-05, "MEAN_MOTION_DDOT": 0}, "tle": {"line1": "1 34651U 97051KC  25351.87321250  .00006428  00000+0  24199-2 0  9991", "line2": "2 34651  86.2826 138.3936 0142240 187.6820 172.2195 14.25899188859690"}}, "geometry": {"type": "Point", "coordinates": [-140.09990971326584, 86.24146616645666]}}, {"type": "Feature", "properties": {"norad_id": 34652, "name": "IRIDIUM 33 DEB", "group": "iridium-33-debris", "lat": 14.174288600562871, "lon": 156.52947784863045, "alt_km": 694.1270303617785, "timestamp": "2025-12-18T10:51:26.195921+00:00", "meta": {"OBJECT_NAME": "IRIDIUM 33 DEB", "OBJECT_ID": "1997-051KD", "EPOCH": "2025-12-17T16:49:34.360896", "MEAN_MOTION": 14.62104156, "ECCENTRICITY": 0.00256012, "INCLINATION": 86.3312, "RA_OF_ASC_NODE": 337.7924, "ARG_OF_PERICENTER": 280.0714, "MEAN_ANOMALY": 253.9432, "EPHEMERIS_TYPE": 0, "CLASSIFICATION_TYPE": "U", "NORAD_CAT_ID": 34652, "ELEMENT_SET_NO": 999, "REV_AT_EPOCH": 88556, "BSTAR": 0.0007419997, "MEAN_MOTION_DOT": 3.766e-05, "MEAN_MOTION_DDOT": 0}, "tle": {"line1": "1 34652U 97051KD  25351.70109214  .00003766  00000+0  74200-3 0  9999", "line2": "2 34652  86.3312 337.7924 0025601 280.0714 253.9432 14.62104156885566"}}, "geometry": {"type": "Point", "coordinates": [156.52947784863045, 14.174288600562871]}}, {"type": "Feature", "properties": {"norad_id": 34690, "name": "IRIDIUM 33 DEB", "group": "iridium-33-debris", "lat": -65.17402668641762, "lon": -137.62131657622572, "alt_km": 720.5038000537379, "timestamp": "2025-12-18T10:51:26.195968+00:00", "meta": {"OBJECT_NAME": "IRIDIUM 33 DEB", "OBJECT_ID": "1997-051KM", "EPOCH": "2025-12-17T14:37:45.220224", "MEAN_MOTION": 14.55113538, "ECCENTRICITY": 0.00102521, "INCLINATION": 86.378, "RA_OF_ASC_NODE": 34.8752, "ARG_OF_PERICENTER": 13.538, "MEAN_ANOMALY": 139.6507, "EPHEMERIS_TYPE": 0, "CLASSIFICATION_TYPE": "U", "NORAD_CAT_ID": 34690, "ELEMENT_SET_NO": 999, "REV_AT_EPOCH": 88165, "BSTAR": 0.00032504692, "MEAN_MOTION_DOT": 1.424e-05, "MEAN_MOTION_DDOT": 0}, "tle": {"line1": "1 34690U 97051KM  25351.60955116  .00001424  00000+0  32505-3 0  9991", "line2": "2 34690  86.3780  34.8752 0010252  13.5380 139.6507 14.55113538881650"}}, "geometry": {"type": "Point", "coordinates": [-137.62131657622572, -65.17402668641762]}}, {"type": "Feature", "properties": {"norad_id": 34693, "name": "IRIDIUM 33 DEB", "group": "iridium-33-debris", "lat": 3.6013470360240607, "lon": -58.78311919437937, "alt_km": 473.7885000902179, "timestamp": "2025-12-18T10:51:26.195991+00:00", "meta": {"OBJECT_NAME": "IRIDIUM 33 DEB", "OBJECT_ID": "1997-051KQ", "EPOCH": "2025-12-17T03:29:01.779936", "MEAN_MOTION": 15.28993867, "ECCENTRICITY": 0.0012502, "INCLINATION": 86.3047, "RA_OF_ASC_NODE": 301.6344, "ARG_OF_PERICENTER": 45.3487, "MEAN_ANOMALY": 327.2881, "EPHEMERIS_TYPE": 0, "CLASSIFICATION_TYPE": "U", "NORAD_CAT_ID": 34693, "ELEMENT_SET_NO": 999, "REV_AT_EPOCH": 88982, "BSTAR": 0.0037800508, "MEAN_MOTION_DOT": 0.00107985, "MEAN_MOTION_DDOT": 0}, "tle": {"line1": "1 34693U 97051KQ  25351.14515949  .00107985  00000+0  37801-2 0  9991", "line2": "2 34693  86.3047 301.6344 0012502  45.3487 327.2881 15.28993867889821"}}, "geometry": {"type": "Point", "coordinates": [-58.78311919437937, 3.6013470360240607]}}, {"type": "Feature", "properties": {"norad_id": 34696, "name": "IRIDIUM 33 DEB", "group": "iridium-33-debris", "lat": -53.143552000884206, "lon": -150.02872657990744, "alt_km": 678.1238531020554, "timestamp": "2025-12-18T10:51:26.196008+00:00", "meta": {"OBJECT_NAME": "IRIDIUM 33 DEB", "OBJECT_ID": "1997-051KT", "EPOCH": "2025-12-17T09:30:23.079744", "MEAN_MOTION": 14.6532937, "ECCENTRICITY": 0.00740014, "INCLINATION": 86.1851, "RA_OF_ASC_NODE": 25.356, "ARG_OF_PERICENTER": 151.7649, "MEAN_ANOMALY": 272.0645, "EPHEMERIS_TYPE": 0, "CLASSIFICATION_TYPE": "U", "NORAD_CAT_ID": 34696, "ELEMENT_SET_NO": 999, "REV_AT_EPOCH": 86741, "BSTAR": 0.0031909268, "MEAN_MOTION_DOT": 0.00017981, "MEAN_MOTION_DDOT": 0}, "tle": {"line1": "1 34696U 97051KT  25351.39610046  .00017981  00000+0  31909-2 0  9994", "line2": "2 34696  86.1851  25.3560 0074001 151.7649 272.0645 14.65329370867417"}}, "geometry": {"type": "Point", "coordinates": [-150.02872657990744, -53.143552000884206]}}, {"type": "Feature", "properties": {"norad_id": 34765, "name": "IRIDIUM 33 DEB", "group": "iridium-33-debris", "lat": -26.266318613501593, "lon": 28.499664646005186, "alt_km": 771.6241191942836, "timestamp": "2025-12-18T10:51:26.196026+00:00", "meta": {"OBJECT_NAME": "IRIDIUM 33 DEB", "OBJECT_ID": "1997-051LJ", "EPOCH": "2025-12-17T14:00:27.393696", "MEAN_MOTION": 14.4047717, "ECCENTRICITY": 0.00159633, "INCLINATION": 86.3388, "RA_OF_ASC_NODE": 30.6831, "ARG_OF_PERICENTER": 194.8895, "MEAN_ANOMALY": 316.624, "EPHEMERIS_TYPE": 0, "CLASSIFICATION_TYPE": "U", "NORAD_CAT_ID": 34765, "ELEMENT_SET_NO": 999, "REV_AT_EPOCH": 87683, "BSTAR": 0.0003220723, "MEAN_MOTION_DOT": 1.045e-05, "MEAN_MOTION_DDOT": 0}, "tle": {"line1": "1 34765U 97051LJ  25351.58365039  .00001045  00000+0  32207-3 0  9998", "line2": "2 34765  86.3388  30.6831 0015963 194.8895 316.6240 14.40477170876831"}}, "geometry": {"type": "Point", "coordinates": [28.499664646005186, -26.266318613501593]}}]}